IRIDIUM 26              
1 24903U 97043A   25346.83827183  .00000564  00000+0  18241-3 0  9994
2 24903  86.3961  35.5217 0002081  98.8543 261.2890 14.37327550482407
IRIDIUM 22              
1 24907U 97043E   25346.84701720  .00000490  00000+0  16159-3 0  9991
2 24907  86.3965  39.2112 0002271  96.1403 264.0052 14.36121791482417
DUMMY MASS 1            
1 24925U 97048A   25346.67112857  .00000669  00000+0  71322-4 0  9996
2 24925  86.3347  52.7385 0004927 216.7645 143.3243 14.87183134531658
DUMMY MASS 2            
1 24926U 97048B   25346.73038729  .00000664  00000+0  71196-4 0  9993
2 24926  86.3346  54.3519 0005318 234.3961 125.6769 14.86933701531431
IRIDIUM 29              
1 24944U 97051A   25346.94439829  .00000634  00000+0  20865-3 0  9999
2 24944  86.3953  68.8577 0002286  92.6413 267.5046 14.36663135478932
IRIDIUM 33              
1 24946U 97051C   25346.98541738  .00000546  00000+0  18471-3 0  9990
2 24946  86.3869  68.1185 0007052 199.3570 160.7359 14.35037861478383
IRIDIUM 28              
1 24948U 97051E   25346.94448648  .00000624  00000+0  20186-3 0  9997
2 24948  86.3958  66.2709 0001937 109.3387 250.8020 14.37563194479526
IRIDIUM 36              
1 24967U 97056C   25346.87995534  .00000710  00000+0  22925-3 0  9995
2 24967  86.3960  97.9255 0002104 101.7634 258.3800 14.37784318477895
